{
 "type": "FeatureCollection",
 "name": "barreiras",
 "features": [
  {
   "type": "Feature",
   "geometry": {
    "type": "LineString",
    "coordinates": [
     [
      -46.664,
      -23.514
     ],
     [
      -46.6655,
      -23.509
     ],
     [
      -46.667,
      -23.503
     ],
     [
      -46.668,
      -23.496
     ],
     [
      -46.669,
      -23.489
     ],
     [
      -46.67,
      -23.483
     ]
    ]
   },
   "properties": {
    "id": "caetano-alvares-trecho-teste",
    "nome": "Avenida Engenheiro Caetano Álvares",
    "tipo": "avenida",
    "municipio": "São Paulo",
    "origem": "app",
    "atualizado_em": "2026-08-16"
   }
  },
  {
   "type": "Feature",
   "geometry": {
    "type": "LineString",
    "coordinates": [
     [
      -46.5990608,
      -23.4915908
     ],
     [
      -46.5990569,
      -23.49153
     ],
     [
      -46.5990614,
      -23.49145
     ],
     [
      -46.5990783,
      -23.4911928
     ],
     [
      -46.5990815,
      -23.4911455
     ],
     [
      -46.5990864,
      -23.4910723
     ],
     [
      -46.5990927,
      -23.4909786
     ],
     [
      -46.5991009,
      -23.4908913
     ],
     [
      -46.5991768,
      -23.4900875
     ],
     [
      -46.5991862,
      -23.4899875
     ],
     [
      -46.5991964,
      -23.4898872
     ],
     [
      -46.5992244,
      -23.4896115
     ],
     [
      -46.5992748,
      -23.4891159
     ],
     [
      -46.5992881,
      -23.4889855
     ],
     [
      -46.5993145,
      -23.4886516
     ],
     [
      -46.5993467,
      -23.488466
     ],
     [
      -46.599368,
      -23.4883061
     ],
     [
      -46.5993989,
      -23.4880747
     ],
     [
      -46.5994129,
      -23.48797
     ],
     [
      -46.5994326,
      -23.4878069
     ],
     [
      -46.5994391,
      -23.4877413
     ],
     [
      -46.5994697,
      -23.4874325
     ],
     [
      -46.599563,
      -23.4866241
     ],
     [
      -46.5995913,
      -23.4863358
     ],
     [
      -46.5996151,
      -23.4861106
     ],
     [
      -46.5996629,
      -23.4856584
     ],
     [
      -46.5996754,
      -23.4855385
     ],
     [
      -46.5997587,
      -23.4847881
     ],
     [
      -46.5998102,
      -23.4842764
     ],
     [
      -46.5998127,
      -23.484252
     ],
     [
      -46.5998602,
      -23.4837986
     ],
     [
      -46.5998894,
      -23.483496
     ],
     [
      -46.5999091,
      -23.4832427
     ],
     [
      -46.5999439,
      -23.4827691
     ],
     [
      -46.5999692,
      -23.482408
     ],
     [
      -46.5999762,
      -23.482286
     ],
     [
      -46.599986,
      -23.4821386
     ],
     [
      -46.5999766,
      -23.4820925
     ],
     [
      -46.5999514,
      -23.4820009
     ],
     [
      -46.6000274,
      -23.4819475
     ],
     [
      -46.6007523,
      -23.4815839
     ],
     [
      -46.6014424,
      -23.4812444
     ],
     [
      -46.60146741218708,
      -23.48123112298289
     ]
    ]
   },
   "properties": {
    "id": "rua-cruz-de-malta-cliques-eixo",
    "nome": "Rua Cruz de Malta",
    "tipo": "via expressa",
    "municipio": "São Paulo",
    "origem": "app",
    "atualizado_em": "2026-08-16"
   }
  }
 ]
}